CCSDS_OMM_VERS,COMMENT,CREATION_DATE,ORIGINATOR,OBJECT_NAME,OBJECT_ID,CENTER_NAME,REF_FRAME,TIME_SYSTEM,MEAN_ELEMENT_THEORY,EPOCH,MEAN_MOTION,ECCENTRICITY,INCLINATION,RA_OF_ASC_NODE,ARG_OF_PERICENTER,MEAN_ANOMALY,EPHEMERIS_TYPE,CLASSIFICATION_TYPE,NORAD_CAT_ID,ELEMENT_SET_NO,REV_AT_EPOCH,BSTAR,MEAN_MOTION_DOT,MEAN_MOTION_DDOT,SEMIMAJOR_AXIS,PERIOD,APOAPSIS,PERIAPSIS,OBJECT_TYPE,RCS_SIZE,COUNTRY_CODE,LAUNCH_DATE,SITE,DECAY_DATE,FILE,GP_ID,TLE_LINE0,TLE_LINE1,TLE_LINE2
"2.0","GENERATED VIA SPACE-TRACK.ORG API","2020-01-04T06:50:15","18 SPCS","SL-18 DEB","1993-014BJ","EARTH","TEME","UTC","SGP4","2020-01-03T23:55:48.375552","14.79855572","0.00636930","75.7402","127.0431","274.4069","84.9842","0","U","35359","999","65846","0.00036613000000","0.00002837","0.0000000000000","7007.917","97.306","674.417","585.146","DEBRIS","SMALL","CIS","1993-03-25","PKMTR","","2678143","146092217","0 SL-18 DEB","1 35359U 93014BJ  20003.99708768  .00002837  00000-0  36613-3 0  9993","2 35359  75.7402 127.0431 0063693 274.4069  84.9842 14.79855572658466"
"2.0","GENERATED VIA SPACE-TRACK.ORG API","2020-01-04T05:49:52","18 SPCS","IRIDIUM 176","2019-002B","EARTH","TEME","UTC","SGP4","2020-01-03T18:52:40.640736","14.72250204","0.00022850","86.6116","258.2916","81.2221","278.9255","0","U","43923","999","5255","0.00000199800000","0.00000037","0.0000000000000","7032.030","97.809","655.502","652.288","PAYLOAD","LARGE","US","2019-01-11","AFWTR","","2678007","146068739","0 IRIDIUM 176","1 43923U 19002B   20003.78658149 +.00000037 +00000-0 +19980-5 0  9998","2 43923 086.6116 258.2916 0002285 081.2221 278.9255 14.72250204052559"
"2.0","GENERATED VIA SPACE-TRACK.ORG API","2020-01-03T14:30:18","18 SPCS","IRIDIUM 176","2019-002B","EARTH","TEME","UTC","SGP4","2020-01-03T10:43:18.545088","14.72250166","0.00022950","86.6115","258.4335","81.2419","278.9058","0","U","43923","999","5250","0.00000208260000","0.00000038","0.0000000000000","7032.030","97.809","655.509","652.281","PAYLOAD","LARGE","US","2019-01-11","AFWTR","","2677643","146022251","0 IRIDIUM 176","1 43923U 19002B   20003.44674242  .00000038  00000-0  20826-5 0  9995","2 43923  86.6115 258.4335 0002295  81.2419 278.9058 14.72250166 52508"
"2.0","GENERATED VIA SPACE-TRACK.ORG API","2020-01-03T16:20:14","18 SPCS","IRIDIUM 176","2019-002B","EARTH","TEME","UTC","SGP4","2020-01-03T10:43:18.545088","14.72250166","0.00022950","86.6115","258.4335","81.2419","278.9058","0","U","43923","999","5250","0.00000208260000","0.00000038","0.0000000000000","7032.030","97.809","655.509","652.281","PAYLOAD","LARGE","US","2019-01-11","AFWTR","","2677793","146025803","0 IRIDIUM 176","1 43923U 19002B   20003.44674242  .00000038  00000-0  20826-5 0  9995","2 43923  86.6115 258.4335 0002295  81.2419 278.9058 14.72250166 52508"
"2.0","GENERATED VIA SPACE-TRACK.ORG API","2020-01-03T06:39:03","18 SPCS","IRIDIUM 176","2019-002B","EARTH","TEME","UTC","SGP4","2020-01-02T20:02:26.769120","14.72250121","0.00023020","86.6116","258.6890","81.1633","278.9845","0","U","43923","999","5241","0.00000368550000","0.00000048","0.0000000000000","7032.030","97.809","655.514","652.277","PAYLOAD","LARGE","US","2019-01-11","AFWTR","","2677562","146001514","0 IRIDIUM 176","1 43923U 19002B   20002.83503205 +.00000048 +00000-0 +36855-5 0  9997","2 43923 086.6116 258.6890 0002302 081.1633 278.9845 14.72250121052418"
"2.0","GENERATED VIA SPACE-TRACK.ORG API","2020-01-02T21:50:13","18 SPCS","SL-18 DEB","1993-014BJ","EARTH","TEME","UTC","SGP4","2020-01-02T17:06:06.409152","14.79848491","0.00635530","75.7404","129.3086","277.5423","81.8546","0","U","35359","999","65827","0.00036381000000","0.00002818","0.0000000000000","7007.939","97.307","674.341","585.266","DEBRIS","SMALL","CIS","1993-03-25","PKMTR","","2677362","145977511","0 SL-18 DEB","1 35359U 93014BJ  20002.71257418  .00002818  00000-0  36381-3 0  9994","2 35359  75.7404 129.3086 0063553 277.5423  81.8546 14.79848491658270"
"2.0","GENERATED VIA SPACE-TRACK.ORG API","2020-01-02T15:40:15","18 SPCS","IRIDIUM 176","2019-002B","EARTH","TEME","UTC","SGP4","2020-01-02T10:15:12.247776","14.72250269","0.00023060","86.6116","258.8594","81.1340","279.0138","0","U","43923","999","5235","0.00002405000000","0.00000176","0.0000000000000","7032.030","97.809","655.517","652.273","PAYLOAD","LARGE","US","2019-01-11","AFWTR","","2677230","145954480","0 IRIDIUM 176","1 43923U 19002B   20002.42722509  .00000176  00000-0  24050-4 0  9997","2 43923  86.6116 258.8594 0002306  81.1340 279.0138 14.72250269 52353"
"2.0","GENERATED VIA SPACE-TRACK.ORG API","2020-01-02T11:50:17","18 SPCS","IRIDIUM 176","2019-002B","EARTH","TEME","UTC","SGP4","2020-01-02T06:59:27.408480","14.72250348","0.00023030","86.6116","258.9162","80.8799","279.2679","0","U","43923","999","5233","0.00003966700000","0.00000275","0.0000000000000","7032.030","97.809","655.514","652.275","PAYLOAD","LARGE","US","2019-01-11","AFWTR","","2677112","145951789","0 IRIDIUM 176","1 43923U 19002B   20002.29128945  .00000275  00000-0  39667-4 0  9996","2 43923  86.6116 258.9162 0002303  80.8799 279.2679 14.72250348 52334"
"2.0","GENERATED VIA SPACE-TRACK.ORG API","2020-01-02T06:13:51","18 SPCS","IRIDIUM 176","2019-002B","EARTH","TEME","UTC","SGP4","2020-01-01T19:34:20.470944","14.72250362","0.00023530","86.6115","259.1147","81.8752","278.2732","0","U","43923","999","5226","0.00001537100000","0.00000122","0.0000000000000","7032.030","97.809","655.549","652.240","PAYLOAD","LARGE","US","2019-01-11","AFWTR","","2676929","145946593","0 IRIDIUM 176","1 43923U 19002B   20001.81551471 +.00000122 +00000-0 +15371-4 0  9994","2 43923 086.6115 259.1147 0002353 081.8752 278.2732 14.72250362052261"
"2.0","GENERATED VIA SPACE-TRACK.ORG API","2020-01-02T06:13:51","18 SPCS","SL-18 DEB","1993-014BJ","EARTH","TEME","UTC","SGP4","2020-01-01T15:08:27.510144","14.79842373","0.00634200","75.7405","131.2162","280.1916","79.2121","0","U","35359","999","65745","0.00034775000000","0.00002691","0.0000000000000","7007.958","97.307","674.268","585.379","DEBRIS","SMALL","CIS","1993-03-25","PKMTR","","2676929","145940245","0 SL-18 DEB","1 35359U 93014BJ  20001.63087396 +.00002691 +00000-0 +34775-3 0  9994","2 35359 075.7405 131.2162 0063420 280.1916 079.2121 14.79842373657450"
"2.0","GENERATED VIA SPACE-TRACK.ORG API","2020-01-01T16:40:13","18 SPCS","IRIDIUM 176","2019-002B","EARTH","TEME","UTC","SGP4","2020-01-01T06:31:21.364320","14.72247631","0.00030100","86.6117","259.3414","75.8045","284.3506","0","U","43923","999","5218","0.00001580200000","0.00000124","0.0000000000000","7032.038","97.809","656.020","651.787","PAYLOAD","LARGE","US","2019-01-11","AFWTR","","2676726","145903865","0 IRIDIUM 176","1 43923U 19002B   20001.27177505  .00000124  00000-0  15802-4 0  9997","2 43923  86.6117 259.3414 0003010  75.8045 284.3506 14.72247631 52184"
"2.0","GENERATED VIA SPACE-TRACK.ORG API","2020-01-01T05:44:34","18 SPCS","IRIDIUM 176","2019-002B","EARTH","TEME","UTC","SGP4","2019-12-31T17:28:21.787680","14.72253063","0.00023060","86.6117","259.5692","81.6344","278.5135","0","U","43923","999","5210","0.00001887200000","0.00000144","0.0000000000000","7032.021","97.809","655.508","652.265","PAYLOAD","LARGE","US","2019-01-11","AFWTR","","2676379","145894977","0 IRIDIUM 176","1 43923U 19002B   19365.72802995 +.00000144 +00000-0 +18872-4 0  9998","2 43923 086.6117 259.5692 0002306 081.6344 278.5135 14.72253063052109"
"2.0","GENERATED VIA SPACE-TRACK.ORG API","2019-12-31T22:40:16","18 SPCS","SL-18 DEB","1993-014BJ","EARTH","TEME","UTC","SGP4","2019-12-31T16:25:30.729216","14.79837946","0.00633050","75.7407","132.8854","282.5243","76.8865","0","U","35359","999","65797","0.00038835000000","0.00003008","0.0000000000000","7007.972","97.307","674.201","585.473","DEBRIS","SMALL","CIS","1993-03-25","PKMTR","","2676332","145875519","0 SL-18 DEB","1 35359U 93014BJ  19365.68438344  .00003008  00000-0  38835-3 0  9997","2 35359  75.7407 132.8854 0063305 282.5243  76.8865 14.79837946657973"
"2.0","GENERATED VIA SPACE-TRACK.ORG API","2019-12-31T14:30:18","18 SPCS","IRIDIUM 176","2019-002B","EARTH","TEME","UTC","SGP4","2019-12-31T10:56:52.154016","14.72252979","0.00023080","86.6118","259.6827","81.6027","278.5451","0","U","43923","999","5206","0.00001874600000","0.00000143","0.0000000000000","7032.021","97.809","655.509","652.263","PAYLOAD","LARGE","US","2019-01-11","AFWTR","","2676051","145849599","0 IRIDIUM 176","1 43923U 19002B   19365.45615919  .00000143  00000-0  18746-4 0  9995","2 43923  86.6118 259.6827 0002308  81.6027 278.5451 14.72252979 52062"
"2.0","GENERATED VIA SPACE-TRACK.ORG API","2019-12-31T16:50:13","18 SPCS","IRIDIUM 176","2019-002B","EARTH","TEME","UTC","SGP4","2019-12-31T10:56:52.154016","14.72252979","0.00023080","86.6118","259.6827","81.6027","278.5451","0","U","43923","999","5206","0.00001874600000","0.00000143","0.0000000000000","7032.021","97.809","655.509","652.263","PAYLOAD","LARGE","US","2019-01-11","AFWTR","","2676181","145852576","0 IRIDIUM 176","1 43923U 19002B   19365.45615919  .00000143  00000-0  18746-4 0  9995","2 43923  86.6118 259.6827 0002308  81.6027 278.5451 14.72252979 52062"
"2.0","GENERATED VIA SPACE-TRACK.ORG API","2019-12-31T04:05:06","18 SPCS","IRIDIUM 176","2019-002B","EARTH","TEME","UTC","SGP4","2019-12-30T20:16:00.475680","14.72252832","0.00023180","86.6118","259.9382","81.7549","278.3931","0","U","43923","999","5197","0.00001945300000","0.00000147","0.0000000000000","7032.022","97.809","655.517","652.257","PAYLOAD","LARGE","US","2019-01-11","AFWTR","","2676005","145847732","0 IRIDIUM 176","1 43923U 19002B   19364.84444995 +.00000147 +00000-0 +19453-4 0  9991","2 43923 086.6118 259.9382 0002318 081.7549 278.3931 14.72252832051970"
